MEAN_MOTION;ECCENTRICITY;INCLINATION;RA_OF_ASC_NODE;ARG_OF_PERICENTER;MEAN_ANOMALY;BSTAR;MEAN_MOTION_DOT;MEAN_MOTION_DDOT;TYPE
14.38853692;0.0005052;45.0167;87.0198;267.2493;92.7778;5.4162E-5;2.5E-7;0;Orbcomm
14.38853841;0.0005051;45.0168;85.3719;268.6614;91.3656;5.6025E-5;3.1E-7;0;Orbcomm
14.38853948;0.0005048;45.0168;84.0537;269.9183;90.1088;5.7869E-5;3.7E-7;0;Orbcomm
14.38854375;0.0005042;45.0169;79.4397;274.1795;85.8478;6.4393E-5;5.7E-7;0;Orbcomm
14.388544;0.0005042;45.0169;79.1101;274.4829;85.5443;6.416E-5;5.7E-7;0;Orbcomm
14.38854848;0.000503;45.017;74.4962;278.5809;81.447;6.7328E-5;6.6E-7;0;Orbcomm
14.38855271;0.0005014;45.0172;69.8822;282.7126;77.3162;6.5755E-5;6.1E-7;0;Orbcomm
14.38855693;0.0004991;45.0173;65.2683;286.8766;73.1536;6.3771E-5;5.5E-7;0;Orbcomm
14.38856047;0.0004966;45.0175;60.984;290.7219;69.3097;6.2878E-5;5.3E-7;0;Orbcomm
14.38856462;0.0004927;45.0176;56.0406;295.3243;64.7095;6.5198E-5;6.0E-7;0;Orbcomm
14.3885668;0.0004894;45.0177;52.0857;298.9683;61.0675;6.1442E-5;4.8E-7;0;Orbcomm
14.38856985;0.0004839;45.0178;47.4718;303.4395;56.5991;5.9609E-5;4.2E-7;0;Orbcomm
14.38857221;0.0004807;45.0178;44.1761;306.5823;53.4583;5.7554E-5;3.6E-7;0;Orbcomm
14.38857372;0.000478;45.0179;42.5284;308.162;51.8797;5.7547E-5;3.6E-7;0;Orbcomm
14.38857691;0.0004737;45.018;39.2327;311.3899;48.6542;6.063E-5;4.5E-7;0;Orbcomm
14.38857863;0.0004716;45.0181;37.2554;313.2235;46.822;6.0626E-5;4.5E-7;0;Orbcomm
14.38858052;0.0004682;45.0182;34.6189;315.7266;44.3207;6.0973E-5;4.7E-7;0;Orbcomm
14.38858214;0.0004653;45.0182;32.6417;317.6399;42.409;6.2747E-5;5.2E-7;0;Orbcomm
14.38858379;0.0004616;45.0183;30.0052;320.1627;39.8882;6.2482E-5;5.1E-7;0;Orbcomm
14.38858397;0.0004604;45.0183;29.6756;320.5204;39.5308;6.1975E-5;5.0E-7;0;Orbcomm
14.38858454;0.0004583;45.0184;28.3575;321.8704;38.182;6.039E-5;4.5E-7;0;Orbcomm
14.38858759;0.0004508;45.0184;23.7438;326.3729;33.6834;5.9466E-5;4.2E-7;0;Orbcomm
14.38859017;0.0004423;45.0185;18.8005;331.4078;28.6527;5.3106E-5;2.2E-7;0;Orbcomm
14.38859214;0.0004367;45.0185;15.505;334.7129;25.3506;4.9646E-5;1.1E-7;0;Orbcomm
14.38859261;0.000434;45.0185;13.8573;336.4078;23.6571;4.6794E-5;2.0E-8;0;Orbcomm
14.38859452;0.0004288;45.0185;10.8913;339.3771;20.6904;4.5821E-5;-1.0E-8;0;Orbcomm
14.38859833;0.0004204;45.0185;6.2776;344.0803;15.9913;5.1041E-5;1.6E-7;0;Orbcomm
14.38859875;0.0004198;45.0185;5.9481;344.4656;15.6064;5.2101E-5;1.9E-7;0;Orbcomm
14.38860279;0.0004118;45.0184;1.3343;349.2181;10.8579;5.9092E-5;4.1E-7;0;Orbcomm
14.38860805;0.0004027;45.0183;356.7205;354.1471;5.933;6.7716E-5;6.7E-7;0;Orbcomm
14.38860836;0.0004024;45.0183;356.3909;354.4759;5.6045;6.7997E-5;6.8E-7;0;Orbcomm
14.38861484;0.0003933;45.0183;352.1067;359.1766;0.9076;8.0615E-5;1.08E-6;0;Orbcomm
14.38861636;0.0003919;45.0183;350.7885;0.6491;359.4362;8.1152E-5;1.09E-6;0;Orbcomm
14.38861891;0.0003888;45.0183;348.8111;2.736;357.3509;8.218E-5;1.12E-6;0;Orbcomm
14.38862163;0.000385;45.0183;347.1634;4.7649;355.3236;8.5266E-5;1.22E-6;0;Orbcomm
14.38862335;0.0003824;45.0182;345.8452;6.3831;353.7066;8.6695E-5;1.26E-6;0;Orbcomm
14.38862542;0.0003791;45.0182;343.8678;8.6389;351.4524;8.6155E-5;1.25E-6;0;Orbcomm
14.38862695;0.000376;45.0182;342.22;10.6394;349.4534;8.4367E-5;1.19E-6;0;Orbcomm
14.38863191;0.0003685;45.0181;337.9358;15.6685;344.4277;8.6678E-5;1.26E-6;0;Orbcomm
14.3886323;0.0003682;45.0181;337.6063;16.0785;344.018;8.7221E-5;1.28E-6;0;Orbcomm
14.38863732;0.0003596;45.018;333.322;21.2244;338.8753;8.8881E-5;1.33E-6;0;Orbcomm
14.38863824;0.0003585;45.018;332.3334;22.4865;337.614;8.8515E-5;1.32E-6;0;Orbcomm
14.38864261;0.0003514;45.0178;328.0491;27.6407;332.4628;8.6111E-5;1.25E-6;0;Orbcomm
14.38864885;0.0003436;45.0176;322.7761;34.2727;325.8343;8.4871E-5;1.21E-6;0;Orbcomm
14.38865381;0.0003362;45.0174;318.4917;40.0067;320.1029;8.5006E-5;1.21E-6;0;Orbcomm
14.38865739;0.0003328;45.0174;315.8551;43.0928;317.0181;8.7665E-5;1.29E-6;0;Orbcomm
14.38865852;0.0003314;45.0173;314.8663;44.3981;315.7133;8.7567E-5;1.29E-6;0;Orbcomm
14.38866401;0.0003246;45.0172;309.5932;51.4999;308.614;8.8547E-5;1.32E-6;0;Orbcomm
14.38866445;0.0003234;45.0172;308.934;52.4183;307.6959;8.7981E-5;1.3E-6;0;Orbcomm
14.38866799;0.0003176;45.0171;304.6495;58.5023;301.6135;8.3327E-5;1.16E-6;0;Orbcomm
14.38866828;0.0003175;45.0171;304.3199;58.9045;301.2115;8.3212E-5;1.16E-6;0;Orbcomm
14.38867237;0.0003128;45.017;300.0354;65.0803;295.0371;7.9187E-5;1.03E-6;0;Orbcomm
14.38867391;0.0003105;45.0169;296.7396;69.7634;290.3549;6.9948E-5;7.4E-7;0;Orbcomm
14.38867637;0.0003103;45.0169;294.7623;73.032;287.0869;6.9394E-5;7.3E-7;0;Orbcomm
14.38868009;0.0003073;45.0169;290.1484;79.7448;280.3747;6.4654E-5;5.8E-7;0;Orbcomm
14.38868254;0.0003049;45.0169;286.8526;84.9601;275.1596;6.1645E-5;4.9E-7;0;Orbcomm
14.3886859;0.0003038;45.0168;282.5682;91.2197;268.8999;6.2717E-5;5.2E-7;0;Orbcomm
14.38868792;0.0003044;45.0167;280.5907;93.9754;266.1443;6.4782E-5;5.8E-7;0;Orbcomm
14.38869033;0.0003039;45.0167;277.6244;98.5304;261.5889;6.412E-5;5.6E-7;0;Orbcomm
14.38869228;0.0003046;45.0166;275.9766;100.9024;259.2167;6.6338E-5;6.3E-7;0;Orbcomm
14.38869587;0.0003064;45.0166;271.3625;107.8648;252.2535;6.2988E-5;5.3E-7;0;Orbcomm
14.38869847;0.0003089;45.0166;267.0779;113.9242;246.1931;5.825E-5;3.8E-7;0;Orbcomm
14.38870006;0.0003115;45.0166;263.7821;118.3268;241.7895;5.6101E-5;3.1E-7;0;Orbcomm
14.38870026;0.0003119;45.0166;263.4525;118.8895;241.2267;5.5711E-5;3.0E-7;0;Orbcomm
14.38870317;0.0003139;45.0166;259.4977;124.3824;235.7322;5.8227E-5;3.8E-7;0;Orbcomm
14.38870838;0.0003223;45.0167;251.9176;134.4714;225.6399;5.9371E-5;4.2E-7;0;Orbcomm
14.38870838;0.0003223;45.0167;251.9176;134.4714;225.6399;5.9371E-5;4.2E-7;0;Orbcomm
14.38871123;0.0003284;45.0167;247.6332;140.5673;219.5415;5.5876E-5;3.1E-7;0;Orbcomm
14.38871332;0.0003325;45.0167;244.667;144.6405;215.4665;5.2748E-5;2.1E-7;0;Orbcomm
14.38871567;0.0003344;45.0168;243.0193;146.4411;213.665;5.6159E-5;3.2E-7;0;Orbcomm
14.38871855;0.00034;45.0168;239.7236;150.803;209.3009;5.5327E-5;2.9E-7;0;Orbcomm
14.38871991;0.0003417;45.0168;238.4055;152.3537;207.7494;5.6638E-5;3.3E-7;0;Orbcomm
14.38872327;0.0003482;45.0167;233.7917;158.0127;202.0872;5.5883E-5;3.1E-7;0;Orbcomm
14.3887262;0.0003532;45.0167;230.496;162.1503;197.947;5.8437E-5;3.9E-7;0;Orbcomm
14.38872895;0.000358;45.0167;227.2004;166.1528;193.942;6.1277E-5;4.8E-7;0;Orbcomm
14.38873033;0.0003615;45.0166;225.5526;168.0715;192.0219;6.1778E-5;4.9E-7;0;Orbcomm
14.38873371;0.0003682;45.0165;221.5977;172.7893;187.3009;6.2805E-5;5.2E-7;0;Orbcomm
14.38873406;0.0003697;45.0165;220.9386;173.6102;186.4794;6.1705E-5;4.9E-7;0;Orbcomm
14.38873678;0.0003779;45.0164;215.9951;179.2339;180.8516;5.618E-5;3.2E-7;0;Orbcomm
14.38874056;0.0003865;45.0164;211.0516;184.7691;175.3122;5.7491E-5;3.6E-7;0;Orbcomm
14.38874136;0.0003876;45.0164;210.3925;185.3462;174.7346;5.8963E-5;4.0E-7;0;Orbcomm
14.38874594;0.0003961;45.0163;205.4489;190.788;169.2885;6.4194E-5;5.7E-7;0;Orbcomm
14.38874982;0.0004037;45.0163;201.1646;195.3218;164.7509;6.7964E-5;6.8E-7;0;Orbcomm
14.38875232;0.0004084;45.0162;198.5279;198.1951;161.8752;6.9556E-5;7.3E-7;0;Orbcomm
14.38875356;0.0004114;45.0162;196.8802;199.7924;160.2766;6.8049E-5;6.9E-7;0;Orbcomm
14.38875641;0.0004178;45.0161;193.5844;203.2275;156.8386;6.5223E-5;6.0E-7;0;Orbcomm
14.38876021;0.0004254;45.0161;188.6409;208.1745;151.8874;5.8132E-5;3.8E-7;0;Orbcomm
14.38876193;0.0004273;45.016;186.9932;209.8344;150.2261;5.9175E-5;4.1E-7;0;Orbcomm
14.38876459;0.0004335;45.0159;183.0383;213.7905;146.2668;5.5293E-5;2.9E-7;0;Orbcomm
14.38876519;0.000434;45.0159;182.3792;214.4397;145.6171;5.5666E-5;3.0E-7;0;Orbcomm
14.38876866;0.0004401;45.0158;178.0947;218.6203;141.4331;5.789E-5;3.7E-7;0;Orbcomm
14.38876899;0.0004406;45.0157;177.7652;218.9106;141.1426;5.835E-5;3.9E-7;0;Orbcomm
14.38877564;0.0004467;45.0156;173.1511;223.3456;136.7042;7.3352E-5;8.5E-7;0;Orbcomm
14.38877604;0.0004472;45.0156;172.8215;223.6353;136.4143;7.3687E-5;8.6E-7;0;Orbcomm
14.38878034;0.0004527;45.0155;168.2074;228.0058;132.0405;7.2224E-5;8.2E-7;0;Orbcomm
14.388783;0.0004563;45.0154;165.5706;230.4707;129.5739;7.2058E-5;8.1E-7;0;Orbcomm
14.38878936;0.0004577;45.0154;163.5932;232.2519;127.7915;9.3816E-5;1.49E-6;0;Orbcomm
14.38879068;0.0004614;45.0154;160.6269;235.0138;125.0277;8.2603E-5;1.14E-6;0;Orbcomm
14.38879202;0.0004624;45.0155;158.9791;236.491;123.5497;7.9344E-5;1.04E-6;0;Orbcomm
14.38879615;0.0004661;45.0155;155.3537;239.8438;120.1949;8.029E-5;1.07E-6;0;Orbcomm
14.38879724;0.0004663;45.0155;154.365;240.7383;119.3;8.0131E-5;1.06E-6;0;Orbcomm
14.38880327;0.0004693;45.0156;149.7509;244.9575;115.0787;8.4438E-5;1.2E-6;0;Orbcomm
14.38880412;0.0004709;45.0156;148.103;246.5111;113.5243;7.8329E-5;1.01E-6;0;Orbcomm
14.3888057;0.0004723;45.0156;146.455;247.8728;112.1619;7.6467E-5;9.5E-7;0;Orbcomm
14.38881029;0.0004745;45.0157;141.841;252.024;108.0092;7.012E-5;7.5E-7;0;Orbcomm
14.38881196;0.0004744;45.0157;140.5228;253.2394;106.7935;6.9496E-5;7.3E-7;0;Orbcomm
14.38881739;0.0004754;45.0157;135.5791;257.6904;102.3412;6.4595E-5;5.8E-7;0;Orbcomm
14.38882398;0.0004769;45.0158;128.6579;263.8122;96.2183;6.1063E-5;4.7E-7;0;Orbcomm
14.38882506;0.0004771;45.0159;127.6692;264.5597;95.4708;6.0759E-5;4.6E-7;0;Orbcomm
14.38882672;0.0004761;45.0159;126.3509;265.8284;94.2021;6.3208E-5;5.4E-7;0;Orbcomm
14.3888299;0.0004763;45.016;122.7255;268.9015;91.1288;6.3574E-5;5.5E-7;0;Orbcomm
14.38883113;0.0004752;45.016;121.4072;270.1487;89.8817;6.3977E-5;5.6E-7;0;Orbcomm
14.38883488;0.0004744;45.0161;117.1226;273.8334;86.1972;6.3363E-5;5.4E-7;0;Orbcomm
14.3888389;0.0004711;45.0163;112.1789;278.2485;81.7829;6.0099E-5;4.4E-7;0;Orbcomm
14.38884113;0.0004705;45.0164;109.5422;280.4515;79.5804;5.89E-5;4.0E-7;0;Orbcomm
14.38884505;0.0004671;45.0166;104.9282;284.5292;75.5039;5.9681E-5;4.3E-7;0;Orbcomm
14.38884467;0.0004645;45.0166;103.9395;285.4939;74.5396;5.5476E-5;3.0E-7;0;Orbcomm
14.38884653;0.000462;45.0168;100.3143;288.7041;71.3306;5.363E-5;2.4E-7;0;Orbcomm
14.38884724;0.0004603;45.0169;98.0074;290.7192;69.3163;4.995E-5;1.2E-7;0;Orbcomm
